[{"OBJECT_NAME":"STARLINK-35153","OBJECT_ID":"2025-210D","EPOCH":"2026-03-09T22:28:59.933856","MEAN_MOTION":15.30185898,"ECCENTRICITY":0.00011971,"INCLINATION":53.1578,"RA_OF_ASC_NODE":305.5975,"ARG_OF_PERICENTER":68.2463,"MEAN_ANOMALY":291.8665,"EPHEMERIS_TYPE":0,"CLASSIFICATION_TYPE":"U","NORAD_CAT_ID":65625,"ELEMENT_SET_NO":999,"REV_AT_EPOCH":2769,"BSTAR":0.0007348496,"MEAN_MOTION_DOT":0.00021458,"MEAN_MOTION_DDOT":0},{"OBJECT_NAME":"KUIPER-00213","OBJECT_ID":"2026-030P","EPOCH":"2026-03-09T22:00:01.999584","MEAN_MOTION":15.32626943,"ECCENTRICITY":0.00152813,"INCLINATION":51.8816,"RA_OF_ASC_NODE":218.5142,"ARG_OF_PERICENTER":64.2462,"MEAN_ANOMALY":206.8369,"EPHEMERIS_TYPE":0,"CLASSIFICATION_TYPE":"U","NORAD_CAT_ID":67777,"ELEMENT_SET_NO":999,"REV_AT_EPOCH":502,"BSTAR":0.0016072376,"MEAN_MOTION_DOT":0.00051551,"MEAN_MOTION_DDOT":0}]
